     2.100          NAVIGATION                              RINEX VERSION / TYPE
fic2rin                                 09/02/2012 00:03:42 PGM / RUN BY / DATE
                                                            END OF HEADER
26 12  9  1  4  0  0.0 -.295908655971D-03  .127329258248D-10  .000000000000D+00
     .360000000000D+02 -.671562500000D+02  .441018370185D-08  .353116269396D+00
    -.333040952682D-05  .207696815487D-01  .803172588348D-05  .515366007996D+04
     .532800000000D+06 -.221654772758D-06 -.679387180117D+00  .124797224998D-06
     .982092900248D+00  .238875000000D+03  .120497098731D+01 -.837070581635D-08
    -.736459247912D-09  .100000000000D+01  .170300000000D+04  .000000000000D+00
     .240000000000D+01  .000000000000D+00 -.605359673500D-08  .360000000000D+02
     .525606000000D+06  .400000000000D+01
28 12  9  1  4  0  0.0  .180950853974D-03  .386535248253D-11  .000000000000D+00
     .122000000000D+03  .609687500000D+02  .423267630796D-08  .234812177469D+01
     .292249023914D-05  .180090127978D-01  .339001417160D-05  .515362632751D+04
     .532800000000D+06  .257045030594D-06  .137749644788D+01 -.186264514923D-06
     .979811653591D+00  .320656250000D+03 -.182152074643D+01 -.790282918456D-08
     .316441752498D-09  .100000000000D+01  .170300000000D+04  .000000000000D+00
     .240000000000D+01  .000000000000D+00 -.107102096081D-07  .122000000000D+03
     .525606000000D+06  .400000000000D+01
31 12  9  1  4  0  0.0  .271419994533D-03  .261479726760D-11  .000000000000D+00
     .800000000000D+02  .294687500000D+02  .381944480949D-08 -.110321816649D+01
     .155158340931D-05  .778574321885D-02  .126473605633D-04  .515371770668D+04
     .532800000000D+06 -.838190317154D-07  .299247740207D+00 -.149011611938D-07
     .981250705625D+00  .149750000000D+03 -.857895492871D+00 -.771460705864D-08
     .832177520677D-10  .100000000000D+01  .170300000000D+04  .000000000000D+00
     .340000000000D+01  .000000000000D+00 -.135041773319D-07  .800000000000D+02
     .525606000000D+06  .400000000000D+01
32 12  9  1  4  0  0.0 -.482995063066D-03 -.420641299570D-11  .000000000000D+00
     .380000000000D+02  .419062500000D+02  .537022369137D-08 -.517542430314D+00
     .217370688915D-05  .118237412535D-01  .402703881264D-05  .515358538246D+04
     .532800000000D+06  .130385160446D-07 -.172776788435D+01 -.158324837685D-06
     .950570845560D+00  .298531250000D+03 -.530730180368D+00 -.874107838671D-08
     .425374861428D-09  .100000000000D+01  .170300000000D+04  .000000000000D+00
     .240000000000D+01  .000000000000D+00 -.325962901115D-08  .380000000000D+02
     .525606000000D+06  .400000000000D+01
10 12  9  1  3 59 44.0 -.502052716911D-04 -.136424205266D-11  .000000000000D+00
     .500000000000D+01  .582500000000D+02  .534486549224D-08  .269032924537D+01
     .290758907795D-05  .115293242270D-01  .425986945629D-05  .515371386528D+04
     .532784000000D+06 -.167638063431D-07 -.179575164488D+01 -.186264514923D-06
     .944864795034D+00  .290312500000D+03  .757333131885D+00 -.840999316712D-08
     .421088968617D-09  .100000000000D+01  .170300000000D+04  .000000000000D+00
     .240000000000D+01  .000000000000D+00 -.232830643654D-08  .500000000000D+01
     .525846000000D+06  .400000000000D+01
 3 12  9  1  3 59 44.0  .956687144935D-04  .500222085975D-11  .000000000000D+00
     .120000000000D+02 -.745312500000D+02  .546808491054D-08  .465898086663D+00
    -.390224158764D-05  .157784401672D-01  .442191958427D-05  .515373350906D+04
     .532784000000D+06 -.257045030594D-06  .223752729498D+01 -.149011611938D-07
     .931962654865D+00  .282312500000D+03  .122788845921D+01 -.895715881590D-08
    -.417160233541D-09  .100000000000D+01  .170300000000D+04  .000000000000D+00
     .240000000000D+01  .000000000000D+00 -.465661287308D-08  .120000000000D+02
     .526986000000D+06  .400000000000D+01
20 12  9  1  3 59 44.0  .673145987093D-04  .795807864051D-12  .000000000000D+00
     .000000000000D+00  .654687500000D+02  .571416658940D-08 -.268190795452D+01
     .339746475220D-05  .497607002035D-02  .449828803539D-05  .515363998413D+04
     .532784000000D+06  .126659870148D-06 -.186214435619D+01  .260770320892D-07
     .929259215902D+00  .276000000000D+03  .127958186329D+01 -.871036282157D-08
     .464305054455D-09  .100000000000D+01  .170300000000D+04  .000000000000D+00
     .240000000000D+01  .000000000000D+00 -.791624188423D-08  .000000000000D+00
     .528186000000D+06  .400000000000D+01
 3 12  9  1  5 59 44.0  .957045704126D-04  .500222085975D-11  .000000000000D+00
     .130000000000D+02 -.827187500000D+02  .543879797634D-08  .151598189965D+01
    -.456534326077D-05  .157786553027D-01  .428967177868D-05  .515373543549D+04
     .539984000000D+06 -.201165676117D-06  .223746261644D+01 -.257045030594D-06
     .931959840211D+00  .286250000000D+03  .122795597288D+01 -.885322591525D-08
    -.403945397376D-09  .100000000000D+01  .170300000000D+04  .000000000000D+00
     .240000000000D+01  .000000000000D+00 -.465661287308D-08  .130000000000D+02
     .532806000000D+06  .400000000000D+01
20 12  9  1  5 59 44.0  .673197209835D-04  .795807864051D-12  .000000000000D+00
     .150000000000D+02  .655000000000D+02  .566987903036D-08 -.163170650098D+01
     .355765223503D-05  .497591763269D-02  .464543700218D-05  .515364007187D+04
     .539984000000D+06  .596046447754D-07 -.186220714024D+01  .726431608200D-07
     .929262783959D+00  .273687500000D+03  .127959026336D+01 -.870107672049D-08
     .499663670140D-09  .100000000000D+01  .170300000000D+04  .000000000000D+00
     .240000000000D+01  .000000000000D+00 -.791624188423D-08  .150000000000D+02
     .532806000000D+06  .400000000000D+01
 1 12  9  1  6  0  0.0  .271890312433D-03  .147792889038D-11  .000000000000D+00
     .360000000000D+02 -.406250000000D+01  .423660504303D-08  .420130298102D+00
    -.193715095520D-06  .111347343773D-02  .124797224998D-04  .515364941216D+04
     .540000000000D+06  .130385160446D-07 -.286474865674D+01  .316649675369D-07
     .960617302344D+00  .140843750000D+03  .361913275643D+00 -.782961184905D-08
     .201079804352D-09  .100000000000D+01  .170300000000D+04  .000000000000D+00
     .240000000000D+01  .000000000000D+00  .838190317154D-08  .360000000000D+02
     .532806000000D+06  .400000000000D+01
 2 12  9  1  6  0  0.0  .401551369578D-03  .113686837722D-11  .000000000000D+00
     .750000000000D+02  .768750000000D+01  .471876798420D-08  .134880895496D+01
     .309199094772D-06  .114174375776D-01  .125840306282D-04  .515375847244D+04
     .540000000000D+06 -.104308128357D-06 -.288056211360D+01  .132247805595D-06
     .939148072521D+00  .124281250000D+03 -.274520612595D+01 -.813783897366D-08
     .482162941165D-10  .100000000000D+01  .170300000000D+04  .000000000000D+00
     .240000000000D+01  .000000000000D+00 -.172294676304D-07  .750000000000D+02
     .532806000000D+06  .400000000000D+01
 4 12  9  1  6  0  0.0  .291300006211D-03  .112549969344D-10  .000000000000D+00
     .320000000000D+02  .151562500000D+02  .468626663039D-08 -.168043244156D+01
     .681728124619D-06  .101831232896D-01  .118166208267D-04  .515365479469D+04
     .540000000000D+06  .201165676117D-06 -.286379846511D+01 -.726431608200D-07
     .938198303679D+00  .131125000000D+03  .891558696404D+00 -.797247494273D-08
     .277154401736D-09  .100000000000D+01  .170300000000D+04  .000000000000D+00
     .240000000000D+01  .000000000000D+00 -.651925802231D-08  .320000000000D+02
     .532806000000D+06  .400000000000D+01
 5 12  9  1  6  0  0.0 -.348371453583D-03 -.306954461848D-11  .000000000000D+00
     .950000000000D+02  .601250000000D+02  .526664794846D-08 -.277600278978D+01
     .313110649586D-05  .281908817124D-02  .463798642159D-05  .515373106575D+04
     .540000000000D+06 -.745058059692D-08 -.181682613406D+01 -.279396772385D-07
     .950011890894D+00  .288312500000D+03  .201622715378D+00 -.848535344903D-08
     .469662420468D-09  .100000000000D+01  .170300000000D+04  .000000000000D+00
     .240000000000D+01  .000000000000D+00 -.102445483208D-07  .950000000000D+02
     .532806000000D+06  .400000000000D+01
 6 12  9  1  6  0  0.0 -.205351971090D-04 -.807176547823D-11  .000000000000D+00
     .620000000000D+02 -.873437500000D+02  .513199948266D-08 -.289250438494D+01
    -.438839197159D-05  .731727492530D-02  .482425093651D-05  .515368610382D+04
     .540000000000D+06 -.186264514923D-08  .231486888603D+01  .949949026108D-07
     .938831896425D+00  .274343750000D+03 -.455581377707D+00 -.851321175230D-08
    -.406445501515D-09  .100000000000D+01  .170300000000D+04  .000000000000D+00
     .240000000000D+01  .000000000000D+00 -.512227416039D-08  .620000000000D+02
     .532806000000D+06  .400000000000D+01
 7 12  9  1  6  0  0.0  .117085874081D-03  .420641299570D-11  .000000000000D+00
     .103000000000D+03  .279375000000D+02  .391694887093D-08 -.170703668207D-02
     .123679637909D-05  .591449683998D-02  .119581818581D-04  .515372968864D+04
     .540000000000D+06  .577419996262D-07  .295853920943D+00  .260770320892D-07
     .976203790395D+00  .156906250000D+03 -.299645896915D+01 -.776996650744D-08
    -.885751180806D-10  .100000000000D+01  .170300000000D+04  .000000000000D+00
     .340000000000D+01  .000000000000D+00 -.107102096081D-07  .103000000000D+03
     .532806000000D+06  .400000000000D+01
 8 12  9  1  6  0  0.0  .212434679270D-05  .113686837722D-12  .000000000000D+00
     .710000000000D+02  .420625000000D+02  .341907098946D-08 -.681366190825D+00
     .203587114811D-05  .126626288984D-01  .120270997286D-04  .515365900040D+04
     .540000000000D+06  .255182385445D-06  .381204469142D+00 -.707805156708D-07
     .998511456604D+00  .168343750000D+03 -.294143683543D+01 -.750102673359D-08
     .371444043564D-10  .100000000000D+01  .170300000000D+04  .000000000000D+00
     .240000000000D+01  .000000000000D+00 -.419095158577D-08  .710000000000D+02
     .532806000000D+06  .400000000000D+01
